[{"OBJECT_NAME":"STARLINK-32876","OBJECT_ID":"2025-043V","EPOCH":"2026-03-09T04:56:56.091264","MEAN_MOTION":15.27605565,"ECCENTRICITY":0.00022536,"INCLINATION":43.0031,"RA_OF_ASC_NODE":18.5061,"ARG_OF_PERICENTER":243.8999,"MEAN_ANOMALY":116.1621,"EPHEMERIS_TYPE":0,"CLASSIFICATION_TYPE":"U","NORAD_CAT_ID":63151,"ELEMENT_SET_NO":999,"REV_AT_EPOCH":5729,"BSTAR":0.0012931379,"MEAN_MOTION_DOT":0.00035523,"MEAN_MOTION_DDOT":0},{"OBJECT_NAME":"DELTA 1 R\/B(1)","OBJECT_ID":"1977-108B","EPOCH":"2026-03-09T17:09:28.687104","MEAN_MOTION":12.7159019,"ECCENTRICITY":0.11493958,"INCLINATION":28.2947,"RA_OF_ASC_NODE":96.6821,"ARG_OF_PERICENTER":61.5787,"MEAN_ANOMALY":309.5754,"EPHEMERIS_TYPE":0,"CLASSIFICATION_TYPE":"U","NORAD_CAT_ID":10490,"ELEMENT_SET_NO":999,"REV_AT_EPOCH":20703,"BSTAR":0.00020105003,"MEAN_MOTION_DOT":8.74e-6,"MEAN_MOTION_DDOT":0}]
